     2.10           NAVIGATION DATA                         RINEX VERSION / TYPE
SPIDER V4,0,0,3554                      2015 03 24 06:12    PGM / RUN BY / DATE 
   1.6764D-08 -7.4506D-09 -5.9605D-08  1.1921D-07           ION ALPHA           
   1.3107D+05 -1.4746D+05  6.5536D+04 -1.3107D+05           ION BETA            
    2.793967723846D-09 4.440892098501D-15   147456     1828 DELTA-UTC: A0,A1,T,W
    16                                                      LEAP SECONDS        
                                                            END OF HEADER       
 9 15 01 17 10 00  0.0-5.777506157756D-05-1.159605744760D-11 0.000000000000D+00
    8.500000000000D+01 6.221875000000D+01 4.330537706210D-09-2.453827972150D+00
    3.131106495857D-06 2.786227269098D-04 1.202337443829D-05 5.153674110413D+03
    5.544000000000D+05 5.587935447693D-09 2.536031997146D+00-1.490116119385D-08
    9.585340631112D-01 1.457500000000D+02 2.276887789081D+00-7.830325721159D-09
   -3.939449877421D-10 1.000000000000D+00 1.827000000000D+03 0.000000000000D+00
    2.800000000000D+00 0.000000000000D+00 4.656612873077D-10 8.500000000000D+01
    5.544000000000D+05 0.000000000000D+00
23 15 01 17 12 00  0.0-8.231122046709D-05-2.614797267597D-12 0.000000000000D+00
    6.600000000000D+01 5.831250000000D+01 4.445542156617D-09-2.218715359292D+00
    2.799555659294D-06 9.707942605019D-03 1.130253076553D-05 5.153681320190D+03
    5.616000000000D+05 1.676380634308D-08 2.545781396711D+00-1.322478055954D-07
    9.495981308480D-01 1.555312500000D+02-2.714753834497D+00-7.779252797491D-09
   -3.028697570517D-10 1.000000000000D+00 1.827000000000D+03 0.000000000000D+00
    2.800000000000D+00 0.000000000000D+00-2.002343535423D-08 6.600000000000D+01
    5.616000000000D+05 0.000000000000D+00
 9 15 01 17 12 00  0.0-5.785841494799D-05-1.159605744760D-11 0.000000000000D+00
    8.600000000000D+01 6.531250000000D+01 4.270535036710D-09-1.399465009678D+00
    3.283843398094D-06 2.778932685032D-04 1.150183379650D-05 5.153676633835D+03
    5.616000000000D+05 1.490116119385D-08 2.535975829870D+00 2.421438694000D-08
    9.585313333061D-01 1.559375000000D+02 2.272702734483D+00-7.795324385995D-09
   -4.075169646178D-10 1.000000000000D+00 1.827000000000D+03 0.000000000000D+00
    2.800000000000D+00 0.000000000000D+00 4.656612873077D-10 8.600000000000D+01
    5.616000000000D+05 0.000000000000D+00
 1 15 01 17 12 00  0.0-1.008016988635D-05 4.547473508865D-13 0.000000000000D+00
    8.200000000000D+01 1.309375000000D+01 4.742340298236D-09 3.102994379302D+00
    6.742775440216D-07 3.788663190790D-03 8.273869752884D-06 5.153664648056D+03
    5.616000000000D+05-5.960464477539D-08 4.508534356724D-01-3.725290298462D-08
    9.619662342349D-01 2.206875000000D+02 4.276470140375D-01-7.957831726912D-09
    5.303792405265D-10 1.000000000000D+00 1.827000000000D+03 0.000000000000D+00
    2.000000000000D+00 0.000000000000D+00 5.587935447693D-09 8.200000000000D+01
    5.616000000000D+05 0.000000000000D+00
 3 15 01 17 12 00  0.0 1.539033837616D-04 2.455635694787D-11 0.000000000000D+00
    7.500000000000D+01-1.415625000000D+01 4.907704465040D-09-7.745524544873D-01
   -8.102506399155D-07 9.487894130871D-04 6.441026926041D-06 5.153758037567D+03
    5.616000000000D+05 5.587935447693D-09 1.491368765244D+00 2.607703208923D-08
    9.589488062383D-01 2.525000000000D+02-3.019094226604D+00-8.116409766501D-09
   -3.571577478212D-10 1.000000000000D+00 1.827000000000D+03 0.000000000000D+00
    2.000000000000D+00 0.000000000000D+00 1.396983861923D-09 7.500000000000D+01
    5.616000000000D+05 0.000000000000D+00
 4 15 01 17 12 00  0.0-5.775596946478D-06-5.684341886081D-13 0.000000000000D+00
    8.500000000000D+01 1.615625000000D+01 5.164857874718D-09 2.942335274863D+00
    7.227063179016D-07 1.098765188362D-02 7.962808012962D-06 5.153733034134D+03
    5.616000000000D+05 2.235174179077D-08 4.315565953101D-01-1.676380634308D-07
    9.396000220438D-01 2.115000000000D+02 1.051395474110D+00-8.090694336715D-09
    5.075211362282D-10 1.000000000000D+00 1.827000000000D+03 0.000000000000D+00
    2.000000000000D+00 0.000000000000D+00-6.519258022308D-09 8.500000000000D+01
    5.616000000000D+05 0.000000000000D+00
11 15 01 17 11 59 44.0-5.514440126717D-04-2.728484105319D-12 0.000000000000D+00
    2.600000000000D+01-1.250000000000D+00 6.006678709980D-09 2.631924700217D+00
   -1.806765794754D-07 1.559503539465D-02 9.499490261078D-06 5.153723119736D+03
    5.615840000000D+05 1.322478055954D-07 1.097598395950D-01-1.247972249985D-07
    8.925662578245D-01 1.556250000000D+02 1.376647384855D+00-8.374277271628D-09
    5.089497712163D-10 1.000000000000D+00 1.827000000000D+03 0.000000000000D+00
    2.000000000000D+00 0.000000000000D+00-1.210719347000D-08 2.600000000000D+01
    5.615840000000D+05 0.000000000000D+00
17 15 01 17 12 00  0.0-1.504835672677D-04-2.160049916711D-12 0.000000000000D+00
    3.500000000000D+01-9.843750000000D+01 4.190174429652D-09-9.447536907948D-01
   -4.908069968224D-06 1.001120486762D-02 1.122243702412D-05 5.153706863403D+03
    5.616000000000D+05-9.313225746155D-09-5.581223558764D-01 2.533197402954D-07
    9.713205157183D-01 1.689375000000D+02-2.052403249736D+00-7.863184769974D-09
    1.500062435378D-10 1.000000000000D+00 1.827000000000D+03 0.000000000000D+00
    2.000000000000D+00 0.000000000000D+00-1.071020960808D-08 3.500000000000D+01
    5.616000000000D+05 0.000000000000D+00
20 15 01 17 12 00  0.0 2.796109765768D-04 4.206412995700D-12 0.000000000000D+00
    3.600000000000D+01-1.506250000000D+01 5.798455937622D-09 7.078890345797D-01
   -7.338821887970D-07 5.840659607202D-03 5.912035703659D-06 5.155766784668D+03
    5.616000000000D+05-5.215406417847D-08 1.422894223496D+00 5.774199962616D-08
    9.259763443458D-01 2.466250000000D+02 1.237305870002D+00-8.674289730948D-09
   -3.417999494548D-10 1.000000000000D+00 1.827000000000D+03 0.000000000000D+00
    2.000000000000D+00 0.000000000000D+00-8.381903171539D-09 3.600000000000D+01
    5.616000000000D+05 0.000000000000D+00
31 15 01 17 12 00  0.0 3.252979367971D-04-7.958078640513D-13 0.000000000000D+00
    7.200000000000D+01 1.165937500000D+02 4.063740899340D-09 2.472391224927D+00
    6.165355443954D-06 8.326406939887D-03 5.137175321579D-06 5.153718200684D+03
    5.616000000000D+05 4.470348358154D-08-2.665153601408D+00 1.341104507446D-07
    9.767087297362D-01 2.893437500000D+02-5.710837939666D-01-7.950688107883D-09
    1.846505448544D-10 1.000000000000D+00 1.827000000000D+03 0.000000000000D+00
    2.000000000000D+00 0.000000000000D+00-1.350417733192D-08 7.200000000000D+01
    5.616000000000D+05 0.000000000000D+00
32 15 01 17 12 00  0.0-2.455455251038D-04 8.753886504564D-12 0.000000000000D+00
    1.500000000000D+01-2.240625000000D+01 5.011280279632D-09 3.028203083099D+00
   -1.329928636551D-06 1.136787247378D-02 6.837770342827D-06 5.153584524155D+03
    5.616000000000D+05-1.769512891769D-07 1.574939891574D+00 5.587935447693D-08
    9.466846285518D-01 2.395625000000D+02 6.951429760666D-03-8.055335953827D-09
   -4.778770712477D-10 1.000000000000D+00 1.827000000000D+03 0.000000000000D+00
    2.000000000000D+00 0.000000000000D+00-3.725290298462D-09 1.500000000000D+01
    5.616000000000D+05 0.000000000000D+00
 9 15 01 17 11 59 44.0-5.785748362541D-05-1.159605744760D-11 0.000000000000D+00
    2.400000000000D+01 6.531250000000D+01 4.270535036710D-09-1.401816539308D+00
    3.283843398094D-06 2.778962953016D-04 1.150183379650D-05 5.153676637650D+03
    5.615840000000D+05 1.490116119385D-08 2.535975961532D+00 2.421438694000D-08
    9.585313406206D-01 1.559375000000D+02 2.272720530881D+00-7.794967338270D-09
   -4.071598058708D-10 1.000000000000D+00 1.827000000000D+03 0.000000000000D+00
    2.000000000000D+00 0.000000000000D+00 4.656612873077D-10 2.400000000000D+01
    5.615840000000D+05 0.000000000000D+00
 6 15 01 17 12 00  0.0 5.403626710176D-05 1.068656274583D-11 0.000000000000D+00
    7.700000000000D+01 3.906250000000D+00 4.757698235380D-09-4.100755597388D-01
    3.613531589508D-07 4.639029502869D-04 8.435919880867D-06 5.153673696518D+03
    5.616000000000D+05 3.539025783539D-08 4.423207085015D-01 2.980232238770D-08
    9.618756649766D-01 2.182812500000D+02 2.438061208704D+00-8.008904650580D-09
    5.514515510896D-10 1.000000000000D+00 1.827000000000D+03 0.000000000000D+00
    2.000000000000D+00 0.000000000000D+00 4.656612873077D-09 7.700000000000D+01
    5.616000000000D+05 0.000000000000D+00
10 15 01 17 12 00  0.0-1.591476611793D-04-1.705302565824D-12 0.000000000000D+00
    7.400000000000D+01-1.512500000000D+01 5.480585318907D-09 1.340406107123D-01
   -5.979090929031D-07 1.452573679853D-02 6.120651960373D-06 5.153643138885D+03
    5.616000000000D+05-4.656612873077D-08 1.501916647440D+00 2.197921276093D-07
    9.410263423015D-01 2.495000000000D+02 9.167387291163D-01-8.645717031186D-09
   -4.289464339280D-10 1.000000000000D+00 1.827000000000D+03 0.000000000000D+00
    2.000000000000D+00 0.000000000000D+00-3.259629011154D-09 7.400000000000D+01
    5.616000000000D+05 0.000000000000D+00
 7 15 01 17 12 00  0.0 4.322906024754D-04 3.410605131648D-12 0.000000000000D+00
    5.600000000000D+01 1.215312500000D+02 4.268391862183D-09 2.566442457921D+00
    6.278976798058D-06 7.956800982356D-03 4.593282938004D-06 5.153742286682D+03
    5.616000000000D+05-1.154839992523D-07-2.672330722855D+00-1.266598701477D-07
    9.718059280291D-01 2.967187500000D+02-2.751781708651D+00-8.089980241266D-09
    3.053698682809D-10 1.000000000000D+00 1.827000000000D+03 0.000000000000D+00
    2.000000000000D+00 0.000000000000D+00-1.117587089539D-08 5.600000000000D+01
    5.616000000000D+05 0.000000000000D+00
